STARLINK-36746          
1 67733U 26026N   26054.36995801 -.00519841  00000+0 -21797-2 0  9997
2 67733  97.2719 108.2927 0001512  17.4029 342.7294 15.86685661  1873
STARLINK-36749          
1 67734U 26026P   26054.36892218 -.00290477  00000+0 -11679-2 0  9995
2 67734  97.2720 108.2943 0000527 216.5755 143.5480 15.87028222  1876
STARLINK-36691          
1 67735U 26026Q   26053.60942925  .00720310  21777-3  20215-2 0  9999
2 67735  97.2721 107.4891 0013403 329.2709  30.7780 15.93433356  1751
STARLINK-36317          
1 67736U 26026R   26054.24137767 -.00569964  00000+0 -22846-2 0  9993
2 67736  97.2712 108.1605 0001229 132.1211 228.0166 15.87718849  1852
STARLINK-36330          
1 67737U 26026S   26054.23919701 -.00726891  00000+0 -29058-2 0  9995
2 67737  97.2697 108.1632 0000841  79.3205 280.8162 15.88126167  1858
STARLINK-36327          
1 67738U 26026T   26053.10524266  .00363508  52694-4  10592-2 0  9993
2 67738  97.2709 106.9523 0004408 161.3097 198.8340 15.92834545  1679
STARLINK-36329          
1 67739U 26026U   26054.10578650 -.00097229  53551-5 -31498-3 0  9990
2 67739  97.2682 108.0379 0001804 180.7973 179.3298 15.90592626  1830
STARLINK-36737          
1 67740U 26026V   26053.60652738  .01008593  46163-3  26798-2 0  9996
2 67740  97.2701 107.4938 0015211 321.4509  38.5680 15.94482693  1752
STARLINK-36740          
1 67741U 26026W   26054.23303906 -.00617302  11928-3 -21180-2 0  9993
2 67741  97.2705 108.1733 0001116 123.5326 236.6054 15.89603461  1854
STARLINK-36693          
1 67742U 26026X   26054.29900874 -.00751209  00000+0 -29413-2 0  9994
2 67742  97.2698 108.2354 0001948 347.1282  12.9940 15.88588164  1865
STARLINK-36717          
1 67743U 26026Y   26054.29690627 -.00686430  00000+0 -25994-2 0  9990
2 67743  97.2692 108.2379 0002257 349.4732  10.6493 15.89109458  1860
STARLINK-36692          
1 67744U 26026Z   26054.23488936 -.00575018  10398-3 -20138-2 0  9992
2 67744  97.2710 108.1687 0002804 316.2699  43.8352 15.89181458  1856
