CCSDS_OMM_VERS = 2.0
CREATION_DATE  = 
ORIGINATOR     = 

OBJECT_NAME    = STARLINK-36746
OBJECT_ID      = 2026-026N
CENTER_NAME    = EARTH
REF_FRAME      = TEME
TIME_SYSTEM    = UTC
MEAN_ELEMENT_THEORY = SGP/SGP4

EPOCH          = 2026-02-23T08:52:44.372064
MEAN_MOTION    = 15.86685661
ECCENTRICITY   = .0001512
INCLINATION    = 97.2719
RA_OF_ASC_NODE = 108.2927
ARG_OF_PERICENTER = 17.4029
MEAN_ANOMALY   = 342.7294

EPHEMERIS_TYPE = 0
CLASSIFICATION_TYPE = U
NORAD_CAT_ID   = 67733
ELEMENT_SET_NO = 999
REV_AT_EPOCH   = 187
BSTAR          = -.21797E-2
MEAN_MOTION_DOT = -.519841E-2
MEAN_MOTION_DDOT = 0

CCSDS_OMM_VERS = 2.0
CREATION_DATE  = 
ORIGINATOR     = 

OBJECT_NAME    = STARLINK-36749
OBJECT_ID      = 2026-026P
CENTER_NAME    = EARTH
REF_FRAME      = TEME
TIME_SYSTEM    = UTC
MEAN_ELEMENT_THEORY = SGP/SGP4

EPOCH          = 2026-02-23T08:51:14.876352
MEAN_MOTION    = 15.87028222
ECCENTRICITY   = .0000527
INCLINATION    = 97.2720
RA_OF_ASC_NODE = 108.2943
ARG_OF_PERICENTER = 216.5755
MEAN_ANOMALY   = 143.5480

EPHEMERIS_TYPE = 0
CLASSIFICATION_TYPE = U
NORAD_CAT_ID   = 67734
ELEMENT_SET_NO = 999
REV_AT_EPOCH   = 187
BSTAR          = -.11679E-2
MEAN_MOTION_DOT = -.290477E-2
MEAN_MOTION_DDOT = 0

CCSDS_OMM_VERS = 2.0
CREATION_DATE  = 
ORIGINATOR     = 

OBJECT_NAME    = STARLINK-36691
OBJECT_ID      = 2026-026Q
CENTER_NAME    = EARTH
REF_FRAME      = TEME
TIME_SYSTEM    = UTC
MEAN_ELEMENT_THEORY = SGP/SGP4

EPOCH          = 2026-02-22T14:37:34.687200
MEAN_MOTION    = 15.93433356
ECCENTRICITY   = .0013403
INCLINATION    = 97.2721
RA_OF_ASC_NODE = 107.4891
ARG_OF_PERICENTER = 329.2709
MEAN_ANOMALY   = 30.7780

EPHEMERIS_TYPE = 0
CLASSIFICATION_TYPE = U
NORAD_CAT_ID   = 67735
ELEMENT_SET_NO = 999
REV_AT_EPOCH   = 175
BSTAR          = .20215E-2
MEAN_MOTION_DOT = .72031E-2
MEAN_MOTION_DDOT = .21777E-3

CCSDS_OMM_VERS = 2.0
CREATION_DATE  = 
ORIGINATOR     = 

OBJECT_NAME    = STARLINK-36317
OBJECT_ID      = 2026-026R
CENTER_NAME    = EARTH
REF_FRAME      = TEME
TIME_SYSTEM    = UTC
MEAN_ELEMENT_THEORY = SGP/SGP4

EPOCH          = 2026-02-23T05:47:35.030688
MEAN_MOTION    = 15.87718849
ECCENTRICITY   = .0001229
INCLINATION    = 97.2712
RA_OF_ASC_NODE = 108.1605
ARG_OF_PERICENTER = 132.1211
MEAN_ANOMALY   = 228.0166

EPHEMERIS_TYPE = 0
CLASSIFICATION_TYPE = U
NORAD_CAT_ID   = 67736
ELEMENT_SET_NO = 999
REV_AT_EPOCH   = 185
BSTAR          = -.22846E-2
MEAN_MOTION_DOT = -.569964E-2
MEAN_MOTION_DDOT = 0

CCSDS_OMM_VERS = 2.0
CREATION_DATE  = 
ORIGINATOR     = 

OBJECT_NAME    = STARLINK-36330
OBJECT_ID      = 2026-026S
CENTER_NAME    = EARTH
REF_FRAME      = TEME
TIME_SYSTEM    = UTC
MEAN_ELEMENT_THEORY = SGP/SGP4

EPOCH          = 2026-02-23T05:44:26.621664
MEAN_MOTION    = 15.88126167
ECCENTRICITY   = .0000841
INCLINATION    = 97.2697
RA_OF_ASC_NODE = 108.1632
ARG_OF_PERICENTER = 79.3205
MEAN_ANOMALY   = 280.8162

EPHEMERIS_TYPE = 0
CLASSIFICATION_TYPE = U
NORAD_CAT_ID   = 67737
ELEMENT_SET_NO = 999
REV_AT_EPOCH   = 185
BSTAR          = -.29058E-2
MEAN_MOTION_DOT = -.726891E-2
MEAN_MOTION_DDOT = 0

CCSDS_OMM_VERS = 2.0
CREATION_DATE  = 
ORIGINATOR     = 

OBJECT_NAME    = STARLINK-36327
OBJECT_ID      = 2026-026T
CENTER_NAME    = EARTH
REF_FRAME      = TEME
TIME_SYSTEM    = UTC
MEAN_ELEMENT_THEORY = SGP/SGP4

EPOCH          = 2026-02-22T02:31:32.965824
MEAN_MOTION    = 15.92834545
ECCENTRICITY   = .00044082
INCLINATION    = 97.2709
RA_OF_ASC_NODE = 106.9523
ARG_OF_PERICENTER = 161.3097
MEAN_ANOMALY   = 198.8340

EPHEMERIS_TYPE = 0
CLASSIFICATION_TYPE = U
NORAD_CAT_ID   = 67738
ELEMENT_SET_NO = 999
REV_AT_EPOCH   = 167
BSTAR          = .10591886E-2
MEAN_MOTION_DOT = .363508E-2
MEAN_MOTION_DDOT = .5269434E-4

CCSDS_OMM_VERS = 2.0
CREATION_DATE  = 
ORIGINATOR     = 

OBJECT_NAME    = STARLINK-36329
OBJECT_ID      = 2026-026U
CENTER_NAME    = EARTH
REF_FRAME      = TEME
TIME_SYSTEM    = UTC
MEAN_ELEMENT_THEORY = SGP/SGP4

EPOCH          = 2026-02-23T02:32:19.953600
MEAN_MOTION    = 15.90592626
ECCENTRICITY   = .00018042
INCLINATION    = 97.2682
RA_OF_ASC_NODE = 108.0379
ARG_OF_PERICENTER = 180.7973
MEAN_ANOMALY   = 179.3298

EPHEMERIS_TYPE = 0
CLASSIFICATION_TYPE = U
NORAD_CAT_ID   = 67739
ELEMENT_SET_NO = 999
REV_AT_EPOCH   = 183
BSTAR          = -.31498344E-3
MEAN_MOTION_DOT = -.97229E-3
MEAN_MOTION_DDOT = .5355118E-5

CCSDS_OMM_VERS = 2.0
CREATION_DATE  = 
ORIGINATOR     = 

OBJECT_NAME    = STARLINK-36737
OBJECT_ID      = 2026-026V
CENTER_NAME    = EARTH
REF_FRAME      = TEME
TIME_SYSTEM    = UTC
MEAN_ELEMENT_THEORY = SGP/SGP4

EPOCH          = 2026-02-22T14:33:23.965632
MEAN_MOTION    = 15.94482693
ECCENTRICITY   = .0015211
INCLINATION    = 97.2701
RA_OF_ASC_NODE = 107.4938
ARG_OF_PERICENTER = 321.4509
MEAN_ANOMALY   = 38.5680

EPHEMERIS_TYPE = 0
CLASSIFICATION_TYPE = U
NORAD_CAT_ID   = 67740
ELEMENT_SET_NO = 999
REV_AT_EPOCH   = 175
BSTAR          = .26798E-2
MEAN_MOTION_DOT = .1008593E-1
MEAN_MOTION_DDOT = .46163E-3

CCSDS_OMM_VERS = 2.0
CREATION_DATE  = 
ORIGINATOR     = 

OBJECT_NAME    = STARLINK-36740
OBJECT_ID      = 2026-026W
CENTER_NAME    = EARTH
REF_FRAME      = TEME
TIME_SYSTEM    = UTC
MEAN_ELEMENT_THEORY = SGP/SGP4

EPOCH          = 2026-02-23T05:35:34.574784
MEAN_MOTION    = 15.89603461
ECCENTRICITY   = .0001116
INCLINATION    = 97.2705
RA_OF_ASC_NODE = 108.1733
ARG_OF_PERICENTER = 123.5326
MEAN_ANOMALY   = 236.6054

EPHEMERIS_TYPE = 0
CLASSIFICATION_TYPE = U
NORAD_CAT_ID   = 67741
ELEMENT_SET_NO = 999
REV_AT_EPOCH   = 185
BSTAR          = -.2118E-2
MEAN_MOTION_DOT = -.617302E-2
MEAN_MOTION_DDOT = .11928E-3

CCSDS_OMM_VERS = 2.0
CREATION_DATE  = 
ORIGINATOR     = 

OBJECT_NAME    = STARLINK-36693
OBJECT_ID      = 2026-026X
CENTER_NAME    = EARTH
REF_FRAME      = TEME
TIME_SYSTEM    = UTC
MEAN_ELEMENT_THEORY = SGP/SGP4

EPOCH          = 2026-02-23T07:10:34.355136
MEAN_MOTION    = 15.88588164
ECCENTRICITY   = .0001948
INCLINATION    = 97.2698
RA_OF_ASC_NODE = 108.2354
ARG_OF_PERICENTER = 347.1282
MEAN_ANOMALY   = 12.9940

EPHEMERIS_TYPE = 0
CLASSIFICATION_TYPE = U
NORAD_CAT_ID   = 67742
ELEMENT_SET_NO = 999
REV_AT_EPOCH   = 186
BSTAR          = -.29413E-2
MEAN_MOTION_DOT = -.751209E-2
MEAN_MOTION_DDOT = 0

CCSDS_OMM_VERS = 2.0
CREATION_DATE  = 
ORIGINATOR     = 

OBJECT_NAME    = STARLINK-36717
OBJECT_ID      = 2026-026Y
CENTER_NAME    = EARTH
REF_FRAME      = TEME
TIME_SYSTEM    = UTC
MEAN_ELEMENT_THEORY = SGP/SGP4

EPOCH          = 2026-02-23T07:07:32.701728
MEAN_MOTION    = 15.89109458
ECCENTRICITY   = .0002257
INCLINATION    = 97.2692
RA_OF_ASC_NODE = 108.2379
ARG_OF_PERICENTER = 349.4732
MEAN_ANOMALY   = 10.6493

EPHEMERIS_TYPE = 0
CLASSIFICATION_TYPE = U
NORAD_CAT_ID   = 67743
ELEMENT_SET_NO = 999
REV_AT_EPOCH   = 186
BSTAR          = -.25994E-2
MEAN_MOTION_DOT = -.68643E-2
MEAN_MOTION_DDOT = 0

CCSDS_OMM_VERS = 2.0
CREATION_DATE  = 
ORIGINATOR     = 

OBJECT_NAME    = STARLINK-36692
OBJECT_ID      = 2026-026Z
CENTER_NAME    = EARTH
REF_FRAME      = TEME
TIME_SYSTEM    = UTC
MEAN_ELEMENT_THEORY = SGP/SGP4

EPOCH          = 2026-02-23T05:38:14.440704
MEAN_MOTION    = 15.89181458
ECCENTRICITY   = .0002804
INCLINATION    = 97.2710
RA_OF_ASC_NODE = 108.1687
ARG_OF_PERICENTER = 316.2699
MEAN_ANOMALY   = 43.8352

EPHEMERIS_TYPE = 0
CLASSIFICATION_TYPE = U
NORAD_CAT_ID   = 67744
ELEMENT_SET_NO = 999
REV_AT_EPOCH   = 185
BSTAR          = -.20138E-2
MEAN_MOTION_DOT = -.575018E-2
MEAN_MOTION_DDOT = .10398E-3

